SL-14 R/B               
1 16792U 86046B   26032.30053223  .00000542  00000+0  59632-4 0  9999
2 16792  82.4825 114.5671 0022823 352.1199   7.9655 14.85553288121003
SL-14 R/B               
1 16882U 86055B   26032.43404740  .00000629  00000+0  69629-4 0  9990
2 16882  82.5228 160.7389 0020417  92.1727 339.9563 14.85601256113988
AJISAI (EGS)            
1 16908U 86061A   26032.49106344 -.00000104  00000+0 -50024-4 0  9990
2 16908  50.0065 204.6585 0011249 193.8354 208.6145 12.44515353463497
COSMOS 1812             
1 17295U 87003A   26032.01298020  .00187695  11485-4  60072-3 0  9994
2 17295  82.4787 237.0480 0000818  16.3487 343.7812 15.90955339138607
SL-14 R/B               
1 17567U 87024B   26032.34719622  .00000556  00000+0  60534-4 0  9991
2 17567  82.5298 126.9176 0018827  25.5769 334.6374 14.86094868 82738
COSMOS 1833             
1 17589U 87027A   26032.47446328  .00000140  00000+0  10064-3 0  9993
2 17589  70.9203  42.1314 0024763 262.7368  97.0938 14.13054374  5209
SL-16 R/B               
1 17590U 87027B   26032.34124483  .00000167  00000+0  10662-3 0  9999
2 17590  71.0046 353.0876 0005498 202.6685 157.4197 14.17162927 10194
SL-14 R/B               
1 17912U 87038B   26032.32342914  .00000620  00000+0  69214-4 0  9990
2 17912  82.5042 331.0563 0017760 286.5704  73.3561 14.85329770 73839
COSMOS 1844             
1 17973U 87041A   26032.47717762  .00000098  00000+0  75786-4 0  9994
2 17973  70.8982 110.5604 0028631  76.0892 284.3411 14.14535353998465
SL-14 R/B               
1 18153U 87055B   26032.44136766  .00000547  00000+0  60195-4 0  9993
2 18153  82.4985  23.1918 0021857 130.5372 229.7752 14.85582792 64559
COSMOS 1867             
1 18187U 87060A   26032.46249399 -.00000001  00000+0  37200-4 0  9992
2 18187  65.0104  48.1568 0014030 275.9571  83.9915 14.31496778 14751
SL-14 R/B               
1 18749U 88001B   26032.50157117  .00000478  00000+0  52499-4 0  9997
2 18749  82.5104 229.3997 0018135   3.0047 357.1274 14.85483680 36650
