CCSDS_OMM_VERS = 2.0
CREATION_DATE  = 
ORIGINATOR     = 

OBJECT_NAME    = SL-14 R/B
OBJECT_ID      = 1986-046B
CENTER_NAME    = EARTH
REF_FRAME      = TEME
TIME_SYSTEM    = UTC
MEAN_ELEMENT_THEORY = SGP/SGP4

EPOCH          = 2026-02-01T07:12:45.984672
MEAN_MOTION    = 14.85553288
ECCENTRICITY   = .0022823
INCLINATION    = 82.4825
RA_OF_ASC_NODE = 114.5671
ARG_OF_PERICENTER = 352.1199
MEAN_ANOMALY   = 7.9655

EPHEMERIS_TYPE = 0
CLASSIFICATION_TYPE = U
NORAD_CAT_ID   = 16792
ELEMENT_SET_NO = 999
REV_AT_EPOCH   = 12100
BSTAR          = .59632E-4
MEAN_MOTION_DOT = .542E-5
MEAN_MOTION_DDOT = 0

CCSDS_OMM_VERS = 2.0
CREATION_DATE  = 
ORIGINATOR     = 

OBJECT_NAME    = SL-14 R/B
OBJECT_ID      = 1986-055B
CENTER_NAME    = EARTH
REF_FRAME      = TEME
TIME_SYSTEM    = UTC
MEAN_ELEMENT_THEORY = SGP/SGP4

EPOCH          = 2026-02-01T10:25:01.695360
MEAN_MOTION    = 14.85601256
ECCENTRICITY   = .0020417
INCLINATION    = 82.5228
RA_OF_ASC_NODE = 160.7389
ARG_OF_PERICENTER = 92.1727
MEAN_ANOMALY   = 339.9563

EPHEMERIS_TYPE = 0
CLASSIFICATION_TYPE = U
NORAD_CAT_ID   = 16882
ELEMENT_SET_NO = 999
REV_AT_EPOCH   = 11398
BSTAR          = .69629E-4
MEAN_MOTION_DOT = .629E-5
MEAN_MOTION_DDOT = 0

CCSDS_OMM_VERS = 2.0
CREATION_DATE  = 
ORIGINATOR     = 

OBJECT_NAME    = AJISAI (EGS)
OBJECT_ID      = 1986-061A
CENTER_NAME    = EARTH
REF_FRAME      = TEME
TIME_SYSTEM    = UTC
MEAN_ELEMENT_THEORY = SGP/SGP4

EPOCH          = 2026-02-01T11:47:07.881216
MEAN_MOTION    = 12.44515353
ECCENTRICITY   = .0011249
INCLINATION    = 50.0065
RA_OF_ASC_NODE = 204.6585
ARG_OF_PERICENTER = 193.8354
MEAN_ANOMALY   = 208.6145

EPHEMERIS_TYPE = 0
CLASSIFICATION_TYPE = U
NORAD_CAT_ID   = 16908
ELEMENT_SET_NO = 999
REV_AT_EPOCH   = 46349
BSTAR          = -.50024E-4
MEAN_MOTION_DOT = -.104E-5
MEAN_MOTION_DDOT = 0

CCSDS_OMM_VERS = 2.0
CREATION_DATE  = 
ORIGINATOR     = 

OBJECT_NAME    = COSMOS 1812
OBJECT_ID      = 1987-003A
CENTER_NAME    = EARTH
REF_FRAME      = TEME
TIME_SYSTEM    = UTC
MEAN_ELEMENT_THEORY = SGP/SGP4

EPOCH          = 2026-02-01T00:18:41.489280
MEAN_MOTION    = 15.90955339
ECCENTRICITY   = .00008183
INCLINATION    = 82.4787
RA_OF_ASC_NODE = 237.0480
ARG_OF_PERICENTER = 16.3487
MEAN_ANOMALY   = 343.7812

EPHEMERIS_TYPE = 0
CLASSIFICATION_TYPE = U
NORAD_CAT_ID   = 17295
ELEMENT_SET_NO = 999
REV_AT_EPOCH   = 13860
BSTAR          = .60071776E-3
MEAN_MOTION_DOT = .187695E-2
MEAN_MOTION_DDOT = .11485369E-4

CCSDS_OMM_VERS = 2.0
CREATION_DATE  = 
ORIGINATOR     = 

OBJECT_NAME    = SL-14 R/B
OBJECT_ID      = 1987-024B
CENTER_NAME    = EARTH
REF_FRAME      = TEME
TIME_SYSTEM    = UTC
MEAN_ELEMENT_THEORY = SGP/SGP4

EPOCH          = 2026-02-01T08:19:57.753408
MEAN_MOTION    = 14.86094868
ECCENTRICITY   = .0018827
INCLINATION    = 82.5298
RA_OF_ASC_NODE = 126.9176
ARG_OF_PERICENTER = 25.5769
MEAN_ANOMALY   = 334.6374

EPHEMERIS_TYPE = 0
CLASSIFICATION_TYPE = U
NORAD_CAT_ID   = 17567
ELEMENT_SET_NO = 999
REV_AT_EPOCH   = 8273
BSTAR          = .60534E-4
MEAN_MOTION_DOT = .556E-5
MEAN_MOTION_DDOT = 0

CCSDS_OMM_VERS = 2.0
CREATION_DATE  = 
ORIGINATOR     = 

OBJECT_NAME    = COSMOS 1833
OBJECT_ID      = 1987-027A
CENTER_NAME    = EARTH
REF_FRAME      = TEME
TIME_SYSTEM    = UTC
MEAN_ELEMENT_THEORY = SGP/SGP4

EPOCH          = 2026-02-01T11:23:13.627392
MEAN_MOTION    = 14.13054374
ECCENTRICITY   = .0024763
INCLINATION    = 70.9203
RA_OF_ASC_NODE = 42.1314
ARG_OF_PERICENTER = 262.7368
MEAN_ANOMALY   = 97.0938

EPHEMERIS_TYPE = 0
CLASSIFICATION_TYPE = U
NORAD_CAT_ID   = 17589
ELEMENT_SET_NO = 999
REV_AT_EPOCH   = 520
BSTAR          = .10064E-3
MEAN_MOTION_DOT = .14E-5
MEAN_MOTION_DDOT = 0

CCSDS_OMM_VERS = 2.0
CREATION_DATE  = 
ORIGINATOR     = 

OBJECT_NAME    = SL-16 R/B
OBJECT_ID      = 1987-027B
CENTER_NAME    = EARTH
REF_FRAME      = TEME
TIME_SYSTEM    = UTC
MEAN_ELEMENT_THEORY = SGP/SGP4

EPOCH          = 2026-02-01T08:11:23.553312
MEAN_MOTION    = 14.17162927
ECCENTRICITY   = .0005498
INCLINATION    = 71.0046
RA_OF_ASC_NODE = 353.0876
ARG_OF_PERICENTER = 202.6685
MEAN_ANOMALY   = 157.4197

EPHEMERIS_TYPE = 0
CLASSIFICATION_TYPE = U
NORAD_CAT_ID   = 17590
ELEMENT_SET_NO = 999
REV_AT_EPOCH   = 1019
BSTAR          = .10662E-3
MEAN_MOTION_DOT = .167E-5
MEAN_MOTION_DDOT = 0

CCSDS_OMM_VERS = 2.0
CREATION_DATE  = 
ORIGINATOR     = 

OBJECT_NAME    = SL-14 R/B
OBJECT_ID      = 1987-038B
CENTER_NAME    = EARTH
REF_FRAME      = TEME
TIME_SYSTEM    = UTC
MEAN_ELEMENT_THEORY = SGP/SGP4

EPOCH          = 2026-02-01T07:45:44.277696
MEAN_MOTION    = 14.85329770
ECCENTRICITY   = .001776
INCLINATION    = 82.5042
RA_OF_ASC_NODE = 331.0563
ARG_OF_PERICENTER = 286.5704
MEAN_ANOMALY   = 73.3561

EPHEMERIS_TYPE = 0
CLASSIFICATION_TYPE = U
NORAD_CAT_ID   = 17912
ELEMENT_SET_NO = 999
REV_AT_EPOCH   = 7383
BSTAR          = .69214E-4
MEAN_MOTION_DOT = .62E-5
MEAN_MOTION_DDOT = 0

CCSDS_OMM_VERS = 2.0
CREATION_DATE  = 
ORIGINATOR     = 

OBJECT_NAME    = COSMOS 1844
OBJECT_ID      = 1987-041A
CENTER_NAME    = EARTH
REF_FRAME      = TEME
TIME_SYSTEM    = UTC
MEAN_ELEMENT_THEORY = SGP/SGP4

EPOCH          = 2026-02-01T11:27:08.146368
MEAN_MOTION    = 14.14535353
ECCENTRICITY   = .0028631
INCLINATION    = 70.8982
RA_OF_ASC_NODE = 110.5604
ARG_OF_PERICENTER = 76.0892
MEAN_ANOMALY   = 284.3411

EPHEMERIS_TYPE = 0
CLASSIFICATION_TYPE = U
NORAD_CAT_ID   = 17973
ELEMENT_SET_NO = 999
REV_AT_EPOCH   = 99846
BSTAR          = .75786E-4
MEAN_MOTION_DOT = .98E-6
MEAN_MOTION_DDOT = 0

CCSDS_OMM_VERS = 2.0
CREATION_DATE  = 
ORIGINATOR     = 

OBJECT_NAME    = SL-14 R/B
OBJECT_ID      = 1987-055B
CENTER_NAME    = EARTH
REF_FRAME      = TEME
TIME_SYSTEM    = UTC
MEAN_ELEMENT_THEORY = SGP/SGP4

EPOCH          = 2026-02-01T10:35:34.165824
MEAN_MOTION    = 14.85582792
ECCENTRICITY   = .0021857
INCLINATION    = 82.4985
RA_OF_ASC_NODE = 23.1918
ARG_OF_PERICENTER = 130.5372
MEAN_ANOMALY   = 229.7752

EPHEMERIS_TYPE = 0
CLASSIFICATION_TYPE = U
NORAD_CAT_ID   = 18153
ELEMENT_SET_NO = 999
REV_AT_EPOCH   = 6455
BSTAR          = .60195E-4
MEAN_MOTION_DOT = .547E-5
MEAN_MOTION_DDOT = 0

CCSDS_OMM_VERS = 2.0
CREATION_DATE  = 
ORIGINATOR     = 

OBJECT_NAME    = COSMOS 1867
OBJECT_ID      = 1987-060A
CENTER_NAME    = EARTH
REF_FRAME      = TEME
TIME_SYSTEM    = UTC
MEAN_ELEMENT_THEORY = SGP/SGP4

EPOCH          = 2026-02-01T11:05:59.480736
MEAN_MOTION    = 14.31496778
ECCENTRICITY   = .001403
INCLINATION    = 65.0104
RA_OF_ASC_NODE = 48.1568
ARG_OF_PERICENTER = 275.9571
MEAN_ANOMALY   = 83.9915

EPHEMERIS_TYPE = 0
CLASSIFICATION_TYPE = U
NORAD_CAT_ID   = 18187
ELEMENT_SET_NO = 999
REV_AT_EPOCH   = 1475
BSTAR          = .372E-4
MEAN_MOTION_DOT = -.1E-7
MEAN_MOTION_DDOT = 0

CCSDS_OMM_VERS = 2.0
CREATION_DATE  = 
ORIGINATOR     = 

OBJECT_NAME    = SL-14 R/B
OBJECT_ID      = 1988-001B
CENTER_NAME    = EARTH
REF_FRAME      = TEME
TIME_SYSTEM    = UTC
MEAN_ELEMENT_THEORY = SGP/SGP4

EPOCH          = 2026-02-01T12:02:15.749088
MEAN_MOTION    = 14.85483680
ECCENTRICITY   = .0018135
INCLINATION    = 82.5104
RA_OF_ASC_NODE = 229.3997
ARG_OF_PERICENTER = 3.0047
MEAN_ANOMALY   = 357.1274

EPHEMERIS_TYPE = 0
CLASSIFICATION_TYPE = U
NORAD_CAT_ID   = 18749
ELEMENT_SET_NO = 999
REV_AT_EPOCH   = 3665
BSTAR          = .52499E-4
MEAN_MOTION_DOT = .478E-5
MEAN_MOTION_DDOT = 0

